STARLINK-6302           
1 56396U 23061Y   25289.18560436  .00000212  00000+0  30761-4 0  9995
2 56396  43.0040 249.9974 0000963 272.6138  87.4594 15.02534966130296
STARLINK-6271           
1 56397U 23061Z   25288.33248840  .00000543  00000+0  55247-4 0  9997
2 56397  43.0030 254.7752 0000973 273.2327  86.8404 15.02538775135034
STARLINK-6288           
1 56398U 23061AA  25288.91636484  .00000020  00000+0  16529-4 0  9997
2 56398  43.0034 251.4156 0000946 267.5762  92.4972 15.02532019135128
STARLINK-6277           
1 56399U 23061AB  25289.18782737 -.00001055  00000+0 -63043-4 0  9995
2 56399  43.0066 250.0141 0001663 277.4214  82.6439 15.02524958135168
STARLINK-6267           
1 56400U 23061AC  25289.17672155  .00000474  00000+0  50137-4 0  9991
2 56400  43.0041 249.9279 0001478 266.4236  93.6438 15.02536519135166
STARLINK-6256           
1 56401U 23061AD  25288.58645487  .00000153  00000+0  26359-4 0  9997
2 56401  43.0029 240.2304 0000849 284.4381  75.6367 15.02533020135220
STARLINK-6284           
1 56403U 23061AF  25289.17894191  .00001235  00000+0  10651-3 0  9992
2 56403  43.0035 249.9319 0001292 267.4658  92.6036 15.02535905135161
STARLINK-6287           
1 56404U 23061AG  25289.16784764  .00000406  00000+0  45116-4 0  9990
2 56404  43.0045 249.8589 0001387 254.8051 105.2638 15.02535265135161
STARLINK-6285           
1 56405U 23061AH  25289.17339175  .00000566  00000+0  56974-4 0  9995
2 56405  43.0041 249.9039 0001282 267.4391  92.6305 15.02537461135160
STARLINK-6283           
1 56406U 23061AJ  25287.96237063 -.00044427  00000+0 -32775-2 0  9991
2 56406  43.0056 256.2928 0002362 253.9902 106.0680 15.02728492134984
STARLINK-6282           
1 56407U 23061AK  25289.17006097  .00002891  00000+0  22905-3 0  9990
2 56407  43.0038 249.8775 0001489 289.7657  70.3025 15.02525666135161
STARLINK-6289           
1 56408U 23061AL  25288.95176264  .00002206  00000+0  17833-3 0  9994
2 56408  43.0020 250.8083 0001197 271.0810  88.9895 15.02526841135131
STARLINK-6241           
1 56409U 23061AM  25289.16451799 -.00000551  00000+0 -25723-4 0  9999
2 56409  43.0035 249.8362 0000578 283.5399  76.5379 15.02527700135166
STARLINK-6281           
1 56410U 23061AN  25288.88417612  .00000243  00000+0  33041-4 0  9993
2 56410  43.0031 251.1703 0001021 269.9537  90.1188 15.02533604135121
STARLINK-6279           
1 56411U 23061AP  25289.16229977  .00002148  00000+0  17396-3 0  9991
2 56411  43.0032 249.8171 0001342 264.7357  95.3332 15.02546844135167
STARLINK-6278           
1 56412U 23061AQ  25288.94510150  .00000464  00000+0  49438-4 0  9995
2 56412  43.0036 250.7624 0001251 266.1033  93.9666 15.02537735135132
STARLINK-6258           
1 56413U 23061AR  25288.95397940  .00001094  00000+0  96039-4 0  9996
2 56413  43.0031 250.8332 0001264 264.0904  95.9795 15.02536643135135
