[{"OBJECT_NAME":"STARLINK-6302","OBJECT_ID":"2023-061Y","EPOCH":"2025-10-16T04:27:16.216704","MEAN_MOTION":15.02534966,"ECCENTRICITY":9.63e-5,"INCLINATION":43.004,"RA_OF_ASC_NODE":249.9974,"ARG_OF_PERICENTER":272.6138,"MEAN_ANOMALY":87.4594,"EPHEMERIS_TYPE":0,"CLASSIFICATION_TYPE":"U","NORAD_CAT_ID":56396,"ELEMENT_SET_NO":999,"REV_AT_EPOCH":13029,"BSTAR":3.0761e-5,"MEAN_MOTION_DOT":2.12e-6,"MEAN_MOTION_DDOT":0},{"OBJECT_NAME":"STARLINK-6271","OBJECT_ID":"2023-061Z","EPOCH":"2025-10-15T07:58:46.997760","MEAN_MOTION":15.02538775,"ECCENTRICITY":9.736e-5,"INCLINATION":43.003,"RA_OF_ASC_NODE":254.7752,"ARG_OF_PERICENTER":273.2327,"MEAN_ANOMALY":86.8404,"EPHEMERIS_TYPE":0,"CLASSIFICATION_TYPE":"U","NORAD_CAT_ID":56397,"ELEMENT_SET_NO":999,"REV_AT_EPOCH":13503,"BSTAR":5.5246831e-5,"MEAN_MOTION_DOT":5.43e-6,"MEAN_MOTION_DDOT":0},{"OBJECT_NAME":"STARLINK-6288","OBJECT_ID":"2023-061AA","EPOCH":"2025-10-15T21:59:33.922176","MEAN_MOTION":15.02532019,"ECCENTRICITY":9.46e-5,"INCLINATION":43.0034,"RA_OF_ASC_NODE":251.4156,"ARG_OF_PERICENTER":267.5762,"MEAN_ANOMALY":92.4972,"EPHEMERIS_TYPE":0,"CLASSIFICATION_TYPE":"U","NORAD_CAT_ID":56398,"ELEMENT_SET_NO":999,"REV_AT_EPOCH":13512,"BSTAR":1.6529e-5,"MEAN_MOTION_DOT":2.0e-7,"MEAN_MOTION_DDOT":0},{"OBJECT_NAME":"STARLINK-6277","OBJECT_ID":"2023-061AB","EPOCH":"2025-10-16T04:30:28.284768","MEAN_MOTION":15.02524958,"ECCENTRICITY":0.0001663,"INCLINATION":43.0066,"RA_OF_ASC_NODE":250.0141,"ARG_OF_PERICENTER":277.4214,"MEAN_ANOMALY":82.6439,"EPHEMERIS_TYPE":0,"CLASSIFICATION_TYPE":"U","NORAD_CAT_ID":56399,"ELEMENT_SET_NO":999,"REV_AT_EPOCH":13516,"BSTAR":-6.3043e-5,"MEAN_MOTION_DOT":-1.055e-5,"MEAN_MOTION_DDOT":0},{"OBJECT_NAME":"STARLINK-6267","OBJECT_ID":"2023-061AC","EPOCH":"2025-10-16T04:14:28.741920","MEAN_MOTION":15.02536519,"ECCENTRICITY":0.0001478,"INCLINATION":43.0041,"RA_OF_ASC_NODE":249.9279,"ARG_OF_PERICENTER":266.4236,"MEAN_ANOMALY":93.6438,"EPHEMERIS_TYPE":0,"CLASSIFICATION_TYPE":"U","NORAD_CAT_ID":56400,"ELEMENT_SET_NO":999,"REV_AT_EPOCH":13516,"BSTAR":5.0137e-5,"MEAN_MOTION_DOT":4.74e-6,"MEAN_MOTION_DDOT":0},{"OBJECT_NAME":"STARLINK-6256","OBJECT_ID":"2023-061AD","EPOCH":"2025-10-15T14:04:29.700768","MEAN_MOTION":15.0253302,"ECCENTRICITY":8.49e-5,"INCLINATION":43.0029,"RA_OF_ASC_NODE":240.2304,"ARG_OF_PERICENTER":284.4381,"MEAN_ANOMALY":75.6367,"EPHEMERIS_TYPE":0,"CLASSIFICATION_TYPE":"U","NORAD_CAT_ID":56401,"ELEMENT_SET_NO":999,"REV_AT_EPOCH":13522,"BSTAR":2.6359e-5,"MEAN_MOTION_DOT":1.53e-6,"MEAN_MOTION_DDOT":0},{"OBJECT_NAME":"STARLINK-6284","OBJECT_ID":"2023-061AF","EPOCH":"2025-10-16T04:17:40.581024","MEAN_MOTION":15.02535905,"ECCENTRICITY":0.0001292,"INCLINATION":43.0035,"RA_OF_ASC_NODE":249.9319,"ARG_OF_PERICENTER":267.4658,"MEAN_ANOMALY":92.6036,"EPHEMERIS_TYPE":0,"CLASSIFICATION_TYPE":"U","NORAD_CAT_ID":56403,"ELEMENT_SET_NO":999,"REV_AT_EPOCH":13516,"BSTAR":0.00010651,"MEAN_MOTION_DOT":1.235e-5,"MEAN_MOTION_DDOT":0},{"OBJECT_NAME":"STARLINK-6287","OBJECT_ID":"2023-061AG","EPOCH":"2025-10-16T04:01:42.036096","MEAN_MOTION":15.02535265,"ECCENTRICITY":0.0001387,"INCLINATION":43.0045,"RA_OF_ASC_NODE":249.8589,"ARG_OF_PERICENTER":254.8051,"MEAN_ANOMALY":105.2638,"EPHEMERIS_TYPE":0,"CLASSIFICATION_TYPE":"U","NORAD_CAT_ID":56404,"ELEMENT_SET_NO":999,"REV_AT_EPOCH":13516,"BSTAR":4.5116e-5,"MEAN_MOTION_DOT":4.06e-6,"MEAN_MOTION_DDOT":0},{"OBJECT_NAME":"STARLINK-6285","OBJECT_ID":"2023-061AH","EPOCH":"2025-10-16T04:09:41.047200","MEAN_MOTION":15.02537461,"ECCENTRICITY":0.0001282,"INCLINATION":43.0041,"RA_OF_ASC_NODE":249.9039,"ARG_OF_PERICENTER":267.4391,"MEAN_ANOMALY":92.6305,"EPHEMERIS_TYPE":0,"CLASSIFICATION_TYPE":"U","NORAD_CAT_ID":56405,"ELEMENT_SET_NO":999,"REV_AT_EPOCH":13516,"BSTAR":5.6974e-5,"MEAN_MOTION_DOT":5.66e-6,"MEAN_MOTION_DDOT":0},{"OBJECT_NAME":"STARLINK-6283","OBJECT_ID":"2023-061AJ","EPOCH":"2025-10-14T23:05:48.822432","MEAN_MOTION":15.02728492,"ECCENTRICITY":0.00023622,"INCLINATION":43.0056,"RA_OF_ASC_NODE":256.2928,"ARG_OF_PERICENTER":253.9902,"MEAN_ANOMALY":106.068,"EPHEMERIS_TYPE":0,"CLASSIFICATION_TYPE":"U","NORAD_CAT_ID":56406,"ELEMENT_SET_NO":999,"REV_AT_EPOCH":13498,"BSTAR":-0.0032775136,"MEAN_MOTION_DOT":-0.00044427,"MEAN_MOTION_DDOT":0},{"OBJECT_NAME":"STARLINK-6282","OBJECT_ID":"2023-061AK","EPOCH":"2025-10-16T04:04:53.267808","MEAN_MOTION":15.02525666,"ECCENTRICITY":0.0001489,"INCLINATION":43.0038,"RA_OF_ASC_NODE":249.8775,"ARG_OF_PERICENTER":289.7657,"MEAN_ANOMALY":70.3025,"EPHEMERIS_TYPE":0,"CLASSIFICATION_TYPE":"U","NORAD_CAT_ID":56407,"ELEMENT_SET_NO":999,"REV_AT_EPOCH":13516,"BSTAR":0.00022905,"MEAN_MOTION_DOT":2.891e-5,"MEAN_MOTION_DDOT":0},{"OBJECT_NAME":"STARLINK-6289","OBJECT_ID":"2023-061AL","EPOCH":"2025-10-15T22:50:32.292096","MEAN_MOTION":15.02526841,"ECCENTRICITY":0.0001197,"INCLINATION":43.002,"RA_OF_ASC_NODE":250.8083,"ARG_OF_PERICENTER":271.081,"MEAN_ANOMALY":88.9895,"EPHEMERIS_TYPE":0,"CLASSIFICATION_TYPE":"U","NORAD_CAT_ID":56408,"ELEMENT_SET_NO":999,"REV_AT_EPOCH":13513,"BSTAR":0.00017833,"MEAN_MOTION_DOT":2.206e-5,"MEAN_MOTION_DDOT":0},{"OBJECT_NAME":"STARLINK-6241","OBJECT_ID":"2023-061AM","EPOCH":"2025-10-16T03:56:54.354336","MEAN_MOTION":15.025277,"ECCENTRICITY":5.78e-5,"INCLINATION":43.0035,"RA_OF_ASC_NODE":249.8362,"ARG_OF_PERICENTER":283.5399,"MEAN_ANOMALY":76.5379,"EPHEMERIS_TYPE":0,"CLASSIFICATION_TYPE":"U","NORAD_CAT_ID":56409,"ELEMENT_SET_NO":999,"REV_AT_EPOCH":13516,"BSTAR":-2.5723e-5,"MEAN_MOTION_DOT":-5.51e-6,"MEAN_MOTION_DDOT":0},{"OBJECT_NAME":"STARLINK-6281","OBJECT_ID":"2023-061AN","EPOCH":"2025-10-15T21:13:12.816768","MEAN_MOTION":15.02533604,"ECCENTRICITY":0.0001021,"INCLINATION":43.0031,"RA_OF_ASC_NODE":251.1703,"ARG_OF_PERICENTER":269.9537,"MEAN_ANOMALY":90.1188,"EPHEMERIS_TYPE":0,"CLASSIFICATION_TYPE":"U","NORAD_CAT_ID":56410,"ELEMENT_SET_NO":999,"REV_AT_EPOCH":13512,"BSTAR":3.3041e-5,"MEAN_MOTION_DOT":2.43e-6,"MEAN_MOTION_DDOT":0},{"OBJECT_NAME":"STARLINK-6279","OBJECT_ID":"2023-061AP","EPOCH":"2025-10-16T03:53:42.700128","MEAN_MOTION":15.02546844,"ECCENTRICITY":0.0001342,"INCLINATION":43.0032,"RA_OF_ASC_NODE":249.8171,"ARG_OF_PERICENTER":264.7357,"MEAN_ANOMALY":95.3332,"EPHEMERIS_TYPE":0,"CLASSIFICATION_TYPE":"U","NORAD_CAT_ID":56411,"ELEMENT_SET_NO":999,"REV_AT_EPOCH":13516,"BSTAR":0.00017396,"MEAN_MOTION_DOT":2.148e-5,"MEAN_MOTION_DDOT":0},{"OBJECT_NAME":"STARLINK-6278","OBJECT_ID":"2023-061AQ","EPOCH":"2025-10-15T22:40:56.769600","MEAN_MOTION":15.02537735,"ECCENTRICITY":0.0001251,"INCLINATION":43.0036,"RA_OF_ASC_NODE":250.7624,"ARG_OF_PERICENTER":266.1033,"MEAN_ANOMALY":93.9666,"EPHEMERIS_TYPE":0,"CLASSIFICATION_TYPE":"U","NORAD_CAT_ID":56412,"ELEMENT_SET_NO":999,"REV_AT_EPOCH":13513,"BSTAR":4.9438e-5,"MEAN_MOTION_DOT":4.64e-6,"MEAN_MOTION_DDOT":0},{"OBJECT_NAME":"STARLINK-6258","OBJECT_ID":"2023-061AR","EPOCH":"2025-10-15T22:53:43.820160","MEAN_MOTION":15.02536643,"ECCENTRICITY":0.0001264,"INCLINATION":43.0031,"RA_OF_ASC_NODE":250.8332,"ARG_OF_PERICENTER":264.0904,"MEAN_ANOMALY":95.9795,"EPHEMERIS_TYPE":0,"CLASSIFICATION_TYPE":"U","NORAD_CAT_ID":56413,"ELEMENT_SET_NO":999,"REV_AT_EPOCH":13513,"BSTAR":9.6039e-5,"MEAN_MOTION_DOT":1.094e-5,"MEAN_MOTION_DDOT":0}]
